TOMORROW-S2             
1 60485U 24149T   26068.75188364  .00008133  00000+0  27683-3 0  9990
2 60485  97.3857 150.0385 0001648 234.3331 125.7757 15.30674935 86869
STARLINK-35228          
1 65517U 25198AB  26068.82721041  .00020553  00000+0  70422-3 0  9998
2 65517  53.1587 270.1762 0001063  85.2428 274.8694 15.30196191 28645
